MALLIGYONG-1            
1 58400U 23179A   24157.86687766  .00000850  00000+0  40590-4 0  9996
2 58400  97.4052  44.9087 0002451 307.6151  52.4862 15.21702212 30006
